COSMOS 1933             
1 18958U 88020A   26054.08947470  .00003845  00000+0  18855-3 0  9994
2 18958  82.5101 265.3593 0002790 245.5656 114.5287 15.17840372 48013
SL-3 R/B                
1 19046U 88032B   26054.11611848  .00006413  00000+0  30126-3 0  9996
2 19046  97.5175  37.4236 0024187 286.3929  73.4647 15.19710402 49893
SL-16 R/B               
1 19120U 88039B   26054.11267725 -.00000112  00000+0 -30373-4 0  9994
2 19120  71.0135  99.3738 0021893 356.0813   4.0137 14.19613622956314
COSMOS 1953             
1 19210U 88050A   26054.28742661  .00010239  00000+0  37037-3 0  9994
2 19210  82.5101 172.7233 0011616 170.1328 190.0142 15.28227721 35589
SL-8 R/B                
1 19257U 88053B   26053.71886472  .00000251  00000+0  89874-4 0  9994
2 19257  74.0481 140.0601 0020981 321.7100 152.5156 14.38906090974449
COSMOS 1975             
1 19573U 88093A   26054.18609027  .00008426  00000+0  30863-3 0  9995
2 19573  82.5205 132.2393 0010867 215.3797 144.6723 15.27810089 17194
SL-14 R/B               
1 19574U 88093B   26054.23941722  .00000493  00000+0  53810-4 0  9997
2 19574  82.5282  55.6116 0022330  86.3266 284.5091 14.85637105998892
SL-16 R/B               
1 19650U 88102B   26054.07157364 -.00000195  00000+0 -74461-4 0  9992
2 19650  70.9999 182.2515 0013134  23.9811 336.1921 14.16151500924820
INTERCOSMOS 24          
1 20261U 89080A   26054.10832131  .00000632  00000+0  18624-3 0  9996
2 20261  82.6046 113.8980 1187164 326.6958  26.4550 12.59534021664961
SL-14 R/B               
1 20262U 89080C   26054.31233832  .00000596  00000+0  17826-3 0  9995
2 20262  82.5966 182.4136 1229970 217.6120 133.2489 12.50473013658357
DELTA 1 R/B             
1 20323U 89089B   26054.13576449  .00000316  00000+0  86780-4 0  9992
2 20323  97.0714 263.8882 0069423 167.4797 192.8147 14.50649754893627
ARIANE 40 R/B           
1 20443U 90005H   26054.15085438  .00000246  00000+0  91778-4 0  9995
2 20443  98.3117 115.2432 0009082 245.1015 114.9230 14.39859860890717
