CCSDS_OMM_VERS = 2.0
CREATION_DATE  = 
ORIGINATOR     = 

OBJECT_NAME    = COSMOS 1933
OBJECT_ID      = 1988-020A
CENTER_NAME    = EARTH
REF_FRAME      = TEME
TIME_SYSTEM    = UTC
MEAN_ELEMENT_THEORY = SGP/SGP4

EPOCH          = 2026-02-23T02:08:50.614080
MEAN_MOTION    = 15.17840372
ECCENTRICITY   = .00027903
INCLINATION    = 82.5101
RA_OF_ASC_NODE = 265.3593
ARG_OF_PERICENTER = 245.5656
MEAN_ANOMALY   = 114.5287

EPHEMERIS_TYPE = 0
CLASSIFICATION_TYPE = U
NORAD_CAT_ID   = 18958
ELEMENT_SET_NO = 999
REV_AT_EPOCH   = 4801
BSTAR          = .18855117E-3
MEAN_MOTION_DOT = .3845E-4
MEAN_MOTION_DDOT = 0

CCSDS_OMM_VERS = 2.0
CREATION_DATE  = 
ORIGINATOR     = 

OBJECT_NAME    = SL-3 R/B
OBJECT_ID      = 1988-032B
CENTER_NAME    = EARTH
REF_FRAME      = TEME
TIME_SYSTEM    = UTC
MEAN_ELEMENT_THEORY = SGP/SGP4

EPOCH          = 2026-02-23T02:47:12.636672
MEAN_MOTION    = 15.19710402
ECCENTRICITY   = .00241879
INCLINATION    = 97.5175
RA_OF_ASC_NODE = 37.4236
ARG_OF_PERICENTER = 286.3929
MEAN_ANOMALY   = 73.4647

EPHEMERIS_TYPE = 0
CLASSIFICATION_TYPE = U
NORAD_CAT_ID   = 19046
ELEMENT_SET_NO = 999
REV_AT_EPOCH   = 4989
BSTAR          = .30125826E-3
MEAN_MOTION_DOT = .6413E-4
MEAN_MOTION_DDOT = 0

CCSDS_OMM_VERS = 2.0
CREATION_DATE  = 
ORIGINATOR     = 

OBJECT_NAME    = SL-16 R/B
OBJECT_ID      = 1988-039B
CENTER_NAME    = EARTH
REF_FRAME      = TEME
TIME_SYSTEM    = UTC
MEAN_ELEMENT_THEORY = SGP/SGP4

EPOCH          = 2026-02-23T02:42:15.314400
MEAN_MOTION    = 14.19613622
ECCENTRICITY   = .00218939
INCLINATION    = 71.0135
RA_OF_ASC_NODE = 99.3738
ARG_OF_PERICENTER = 356.0813
MEAN_ANOMALY   = 4.0137

EPHEMERIS_TYPE = 0
CLASSIFICATION_TYPE = U
NORAD_CAT_ID   = 19120
ELEMENT_SET_NO = 999
REV_AT_EPOCH   = 95631
BSTAR          = -.30372729E-4
MEAN_MOTION_DOT = -.112E-5
MEAN_MOTION_DDOT = 0

CCSDS_OMM_VERS = 2.0
CREATION_DATE  = 
ORIGINATOR     = 

OBJECT_NAME    = COSMOS 1953
OBJECT_ID      = 1988-050A
CENTER_NAME    = EARTH
REF_FRAME      = TEME
TIME_SYSTEM    = UTC
MEAN_ELEMENT_THEORY = SGP/SGP4

EPOCH          = 2026-02-23T06:53:53.659104
MEAN_MOTION    = 15.28227721
ECCENTRICITY   = .00116165
INCLINATION    = 82.5101
RA_OF_ASC_NODE = 172.7233
ARG_OF_PERICENTER = 170.1328
MEAN_ANOMALY   = 190.0142

EPHEMERIS_TYPE = 0
CLASSIFICATION_TYPE = U
NORAD_CAT_ID   = 19210
ELEMENT_SET_NO = 999
REV_AT_EPOCH   = 3558
BSTAR          = .37037109E-3
MEAN_MOTION_DOT = .10239E-3
MEAN_MOTION_DDOT = 0

CCSDS_OMM_VERS = 2.0
CREATION_DATE  = 
ORIGINATOR     = 

OBJECT_NAME    = SL-8 R/B
OBJECT_ID      = 1988-053B
CENTER_NAME    = EARTH
REF_FRAME      = TEME
TIME_SYSTEM    = UTC
MEAN_ELEMENT_THEORY = SGP/SGP4

EPOCH          = 2026-02-22T17:15:09.911808
MEAN_MOTION    = 14.38906090
ECCENTRICITY   = .00209816
INCLINATION    = 74.0481
RA_OF_ASC_NODE = 140.0601
ARG_OF_PERICENTER = 321.7100
MEAN_ANOMALY   = 152.5156

EPHEMERIS_TYPE = 0
CLASSIFICATION_TYPE = U
NORAD_CAT_ID   = 19257
ELEMENT_SET_NO = 999
REV_AT_EPOCH   = 97444
BSTAR          = .89874168E-4
MEAN_MOTION_DOT = .251E-5
MEAN_MOTION_DDOT = 0

CCSDS_OMM_VERS = 2.0
CREATION_DATE  = 
ORIGINATOR     = 

OBJECT_NAME    = COSMOS 1975
OBJECT_ID      = 1988-093A
CENTER_NAME    = EARTH
REF_FRAME      = TEME
TIME_SYSTEM    = UTC
MEAN_ELEMENT_THEORY = SGP/SGP4

EPOCH          = 2026-02-23T04:27:58.199328
MEAN_MOTION    = 15.27810089
ECCENTRICITY   = .00108674
INCLINATION    = 82.5205
RA_OF_ASC_NODE = 132.2393
ARG_OF_PERICENTER = 215.3797
MEAN_ANOMALY   = 144.6723

EPHEMERIS_TYPE = 0
CLASSIFICATION_TYPE = U
NORAD_CAT_ID   = 19573
ELEMENT_SET_NO = 999
REV_AT_EPOCH   = 1719
BSTAR          = .30862692E-3
MEAN_MOTION_DOT = .8426E-4
MEAN_MOTION_DDOT = 0

CCSDS_OMM_VERS = 2.0
CREATION_DATE  = 
ORIGINATOR     = 

OBJECT_NAME    = SL-14 R/B
OBJECT_ID      = 1988-093B
CENTER_NAME    = EARTH
REF_FRAME      = TEME
TIME_SYSTEM    = UTC
MEAN_ELEMENT_THEORY = SGP/SGP4

EPOCH          = 2026-02-23T05:44:45.647808
MEAN_MOTION    = 14.85637105
ECCENTRICITY   = .00223308
INCLINATION    = 82.5282
RA_OF_ASC_NODE = 55.6116
ARG_OF_PERICENTER = 86.3266
MEAN_ANOMALY   = 284.5091

EPHEMERIS_TYPE = 0
CLASSIFICATION_TYPE = U
NORAD_CAT_ID   = 19574
ELEMENT_SET_NO = 999
REV_AT_EPOCH   = 99889
BSTAR          = .53810183E-4
MEAN_MOTION_DOT = .493E-5
MEAN_MOTION_DDOT = 0

CCSDS_OMM_VERS = 2.0
CREATION_DATE  = 
ORIGINATOR     = 

OBJECT_NAME    = SL-16 R/B
OBJECT_ID      = 1988-102B
CENTER_NAME    = EARTH
REF_FRAME      = TEME
TIME_SYSTEM    = UTC
MEAN_ELEMENT_THEORY = SGP/SGP4

EPOCH          = 2026-02-23T01:43:03.962496
MEAN_MOTION    = 14.16151500
ECCENTRICITY   = .00131342
INCLINATION    = 70.9999
RA_OF_ASC_NODE = 182.2515
ARG_OF_PERICENTER = 23.9811
MEAN_ANOMALY   = 336.1921

EPHEMERIS_TYPE = 0
CLASSIFICATION_TYPE = U
NORAD_CAT_ID   = 19650
ELEMENT_SET_NO = 999
REV_AT_EPOCH   = 92482
BSTAR          = -.74460618E-4
MEAN_MOTION_DOT = -.195E-5
MEAN_MOTION_DDOT = 0

CCSDS_OMM_VERS = 2.0
CREATION_DATE  = 
ORIGINATOR     = 

OBJECT_NAME    = INTERCOSMOS 24
OBJECT_ID      = 1989-080A
CENTER_NAME    = EARTH
REF_FRAME      = TEME
TIME_SYSTEM    = UTC
MEAN_ELEMENT_THEORY = SGP/SGP4

EPOCH          = 2026-02-23T02:35:58.961184
MEAN_MOTION    = 12.59534021
ECCENTRICITY   = .11871643
INCLINATION    = 82.6046
RA_OF_ASC_NODE = 113.8980
ARG_OF_PERICENTER = 326.6958
MEAN_ANOMALY   = 26.4550

EPHEMERIS_TYPE = 0
CLASSIFICATION_TYPE = U
NORAD_CAT_ID   = 20261
ELEMENT_SET_NO = 999
REV_AT_EPOCH   = 66496
BSTAR          = .18624249E-3
MEAN_MOTION_DOT = .632E-5
MEAN_MOTION_DDOT = 0

CCSDS_OMM_VERS = 2.0
CREATION_DATE  = 
ORIGINATOR     = 

OBJECT_NAME    = SL-14 R/B
OBJECT_ID      = 1989-080C
CENTER_NAME    = EARTH
REF_FRAME      = TEME
TIME_SYSTEM    = UTC
MEAN_ELEMENT_THEORY = SGP/SGP4

EPOCH          = 2026-02-23T07:29:46.030848
MEAN_MOTION    = 12.50473013
ECCENTRICITY   = .12299702
INCLINATION    = 82.5966
RA_OF_ASC_NODE = 182.4136
ARG_OF_PERICENTER = 217.6120
MEAN_ANOMALY   = 133.2489

EPHEMERIS_TYPE = 0
CLASSIFICATION_TYPE = U
NORAD_CAT_ID   = 20262
ELEMENT_SET_NO = 999
REV_AT_EPOCH   = 65835
BSTAR          = .17825802E-3
MEAN_MOTION_DOT = .596E-5
MEAN_MOTION_DDOT = 0

CCSDS_OMM_VERS = 2.0
CREATION_DATE  = 
ORIGINATOR     = 

OBJECT_NAME    = DELTA 1 R/B
OBJECT_ID      = 1989-089B
CENTER_NAME    = EARTH
REF_FRAME      = TEME
TIME_SYSTEM    = UTC
MEAN_ELEMENT_THEORY = SGP/SGP4

EPOCH          = 2026-02-23T03:15:30.051936
MEAN_MOTION    = 14.50649754
ECCENTRICITY   = .00694237
INCLINATION    = 97.0714
RA_OF_ASC_NODE = 263.8882
ARG_OF_PERICENTER = 167.4797
MEAN_ANOMALY   = 192.8147

EPHEMERIS_TYPE = 0
CLASSIFICATION_TYPE = U
NORAD_CAT_ID   = 20323
ELEMENT_SET_NO = 999
REV_AT_EPOCH   = 89362
BSTAR          = .86780125E-4
MEAN_MOTION_DOT = .316E-5
MEAN_MOTION_DDOT = 0

CCSDS_OMM_VERS = 2.0
CREATION_DATE  = 
ORIGINATOR     = 

OBJECT_NAME    = ARIANE 40 R/B
OBJECT_ID      = 1990-005H
CENTER_NAME    = EARTH
REF_FRAME      = TEME
TIME_SYSTEM    = UTC
MEAN_ELEMENT_THEORY = SGP/SGP4

EPOCH          = 2026-02-23T03:37:13.818432
MEAN_MOTION    = 14.39859860
ECCENTRICITY   = .00090826
INCLINATION    = 98.3117
RA_OF_ASC_NODE = 115.2432
ARG_OF_PERICENTER = 245.1015
MEAN_ANOMALY   = 114.9230

EPHEMERIS_TYPE = 0
CLASSIFICATION_TYPE = U
NORAD_CAT_ID   = 20443
ELEMENT_SET_NO = 999
REV_AT_EPOCH   = 89071
BSTAR          = .91777589E-4
MEAN_MOTION_DOT = .246E-5
MEAN_MOTION_DDOT = 0

